FLOCK 4G-14             
1 62667U 25009BL  26068.75869712  .00011310  00000+0  42676-3 0  9993
2 62667  97.4064 151.1836 0003006 318.3639  41.7371 15.27197201 63711
STARLINK-35812          
1 66574U 25268T   26068.14199134  .00029196  00000+0  10661-2 0  9997
2 66574  42.9983 350.3598 0001275 269.6091  90.4615 15.27584612 17875
